{
"type": "FeatureCollection",
"name": "colleges",
"crs": { "type": "name", "properties": { "name": "urn:ogc:def:crs:OGC:1.3:CRS84" } },
"features": [
{ "type": "Feature", "properties": { "name": "Adelphi University", "student_pop": 5276, "acceptance_rate": 0.6591, "avg_net_price": 30783.0, "graduation_rate": 0.6715, "earnings_10y_post_grad": 75482.0, "city": "Garden City", "ownership": 2, "id": 188429, "location.lat": 40.721439, "location.lon": -73.653321, "ownership_label": "Private nonprofit" }, "geometry": { "type": "Point", "coordinates": [ -73.653321, 40.721439 ] } },
{ "type": "Feature", "properties": { "name": "SUNY Adirondack", "student_pop": 1844, "acceptance_rate": null, "avg_net_price": 10389.0, "graduation_rate": null, "earnings_10y_post_grad": 41267.0, "city": "Queensbury", "ownership": 1, "id": 188438, "location.lat": 43.351839, "location.lon": -73.654813, "ownership_label": "State/City University of New York" }, "geometry": { "type": "Point", "coordinates": [ -73.654813, 43.351839 ] } },
{ "type": "Feature", "properties": { "name": "Alfred University", "student_pop": 1423, "acceptance_rate": 0.7384, "avg_net_price": 25620.0, "graduation_rate": 0.5698, "earnings_10y_post_grad": 54897.0, "city": "Alfred", "ownership": 2, "id": 188641, "location.lat": 42.254476, "location.lon": -77.788106, "ownership_label": "Private nonprofit" }, "geometry": { "type": "Point", "coordinates": [ -77.788106, 42.254476 ] } },
{ "type": "Feature", "properties": { "name": "American Musical and Dramatic Academy", "student_pop": 1438, "acceptance_rate": 0.2448, "avg_net_price": 41416.0, "graduation_rate": 0.7164, "earnings_10y_post_grad": 26975.0, "city": "New York", "ownership": 2, "id": 188854, "location.lat": 40.772275, "location.lon": -73.987549, "ownership_label": "Private nonprofit" }, "geometry": { "type": "Point", "coordinates": [ -73.987549, 40.772275 ] } },
{ "type": "Feature", "properties": { "name": "Bard College", "student_pop": 2414, "acceptance_rate": 0.5212, "avg_net_price": 34649.0, "graduation_rate": 0.6756, "earnings_10y_post_grad": 46543.0, "city": "Annandale-On-Hudson", "ownership": 2, "id": 189088, "location.lat": 42.020386, "location.lon": -73.909927, "ownership_label": "Private nonprofit" }, "geometry": { "type": "Point", "coordinates": [ -73.909927, 42.020386 ] } },
{ "type": "Feature", "properties": { "name": "Barnard College", "student_pop": 3264, "acceptance_rate": 0.0884, "avg_net_price": 28800.0, "graduation_rate": 0.9302, "earnings_10y_post_grad": 80516.0, "city": "New York", "ownership": 2, "id": 189097, "location.lat": 40.810098, "location.lon": -73.963346, "ownership_label": "Private nonprofit" }, "geometry": { "type": "Point", "coordinates": [ -73.963346, 40.810098 ] } },
{ "type": "Feature", "properties": { "name": "Berkeley College-New York", "student_pop": 1449, "acceptance_rate": null, "avg_net_price": 34124.0, "graduation_rate": 0.4401, "earnings_10y_post_grad": 45884.0, "city": "New York", "ownership": 3, "id": 189228, "location.lat": 40.753986, "location.lon": -73.979458, "ownership_label": "Private for-profit" }, "geometry": { "type": "Point", "coordinates": [ -73.979458, 40.753986 ] } },
{ "type": "Feature", "properties": { "name": "Boricua College", "student_pop": 391, "acceptance_rate": null, "avg_net_price": 15245.0, "graduation_rate": 0.806, "earnings_10y_post_grad": 35348.0, "city": "New York", "ownership": 2, "id": 189413, "location.lat": 40.833434, "location.lon": -73.9458, "ownership_label": "Private nonprofit" }, "geometry": { "type": "Point", "coordinates": [ -73.9458, 40.833434 ] } },
{ "type": "Feature", "properties": { "name": "SUNY Broome Community College", "student_pop": 3055, "acceptance_rate": null, "avg_net_price": 8940.0, "graduation_rate": null, "earnings_10y_post_grad": 39710.0, "city": "Binghamton", "ownership": 1, "id": 189547, "location.lat": 42.135872, "location.lon": -75.908065, "ownership_label": "State/City University of New York" }, "geometry": { "type": "Point", "coordinates": [ -75.908065, 42.135872 ] } },
{ "type": "Feature", "properties": { "name": "Canisius University", "student_pop": 1685, "acceptance_rate": 0.7236, "avg_net_price": 17940.0, "graduation_rate": 0.6639, "earnings_10y_post_grad": 60681.0, "city": "Buffalo", "ownership": 2, "id": 189705, "location.lat": 42.925206, "location.lon": -78.852577, "ownership_label": "Private nonprofit" }, "geometry": { "type": "Point", "coordinates": [ -78.852577, 42.925206 ] } },
{ "type": "Feature", "properties": { "name": "Cayuga County Community College", "student_pop": 1187, "acceptance_rate": null, "avg_net_price": 8662.0, "graduation_rate": null, "earnings_10y_post_grad": 38709.0, "city": "Auburn", "ownership": 1, "id": 189839, "location.lat": 42.943726, "location.lon": -76.542867, "ownership_label": "State/City University of New York" }, "geometry": { "type": "Point", "coordinates": [ -76.542867, 42.943726 ] } },
{ "type": "Feature", "properties": { "name": "Clarkson University", "student_pop": 2196, "acceptance_rate": 0.7736, "avg_net_price": 30305.0, "graduation_rate": 0.7491, "earnings_10y_post_grad": 89696.0, "city": "Potsdam", "ownership": 2, "id": 190044, "location.lat": 44.662716, "location.lon": -74.999359, "ownership_label": "Private nonprofit" }, "geometry": { "type": "Point", "coordinates": [ -74.999359, 44.662716 ] } },
{ "type": "Feature", "properties": { "name": "Clinton Community College", "student_pop": 400, "acceptance_rate": null, "avg_net_price": 9112.0, "graduation_rate": null, "earnings_10y_post_grad": 39246.0, "city": "Plattsburgh", "ownership": 1, "id": 190053, "location.lat": 44.64841, "location.lon": -73.439739, "ownership_label": "State/City University of New York" }, "geometry": { "type": "Point", "coordinates": [ -73.439739, 44.64841 ] } },
{ "type": "Feature", "properties": { "name": "Metropolitan College of New York", "student_pop": 402, "acceptance_rate": 0.9, "avg_net_price": 28882.0, "graduation_rate": 0.4, "earnings_10y_post_grad": 46236.0, "city": "New York", "ownership": 2, "id": 190114, "location.lat": 40.708706, "location.lon": -74.014702, "ownership_label": "Private nonprofit" }, "geometry": { "type": "Point", "coordinates": [ -74.014702, 40.708706 ] } },
{ "type": "Feature", "properties": { "name": "Colgate University", "student_pop": 3180, "acceptance_rate": 0.1388, "avg_net_price": 28786.0, "graduation_rate": 0.9117, "earnings_10y_post_grad": 85139.0, "city": "Hamilton", "ownership": 2, "id": 190099, "location.lat": 42.819475, "location.lon": -75.536346, "ownership_label": "Private nonprofit" }, "geometry": { "type": "Point", "coordinates": [ -75.536346, 42.819475 ] } },
{ "type": "Feature", "properties": { "name": "Columbia University in the City of New York", "student_pop": 8973, "acceptance_rate": 0.0399, "avg_net_price": 21590.0, "graduation_rate": 0.961, "earnings_10y_post_grad": 102491.0, "city": "New York", "ownership": 2, "id": 190150, "location.lat": 40.808286, "location.lon": -73.961885, "ownership_label": "Private nonprofit" }, "geometry": { "type": "Point", "coordinates": [ -73.961885, 40.808286 ] } },
{ "type": "Feature", "properties": { "name": "Columbia-Greene Community College", "student_pop": 876, "acceptance_rate": null, "avg_net_price": 6559.0, "graduation_rate": null, "earnings_10y_post_grad": 44441.0, "city": "Hudson", "ownership": 1, "id": 190169, "location.lat": 42.217613, "location.lon": -73.818113, "ownership_label": "State/City University of New York" }, "geometry": { "type": "Point", "coordinates": [ -73.818113, 42.217613 ] } },
{ "type": "Feature", "properties": { "name": "Cornell University", "student_pop": 15995, "acceptance_rate": 0.0876, "avg_net_price": 28690.0, "graduation_rate": 0.9538, "earnings_10y_post_grad": 104043.0, "city": "Ithaca", "ownership": 2, "id": 190415, "location.lat": 42.4472, "location.lon": -76.483084, "ownership_label": "Private nonprofit" }, "geometry": { "type": "Point", "coordinates": [ -76.483084, 42.4472 ] } },
{ "type": "Feature", "properties": { "name": "SUNY Corning Community College", "student_pop": 1138, "acceptance_rate": null, "avg_net_price": 7373.0, "graduation_rate": null, "earnings_10y_post_grad": 38817.0, "city": "Corning", "ownership": 1, "id": 190442, "location.lat": 42.116736, "location.lon": -77.072138, "ownership_label": "State/City University of New York" }, "geometry": { "type": "Point", "coordinates": [ -77.072138, 42.116736 ] } },
{ "type": "Feature", "properties": { "name": "Culinary Institute of America", "student_pop": 3011, "acceptance_rate": 0.9115, "avg_net_price": 36113.0, "graduation_rate": 0.6292, "earnings_10y_post_grad": 47475.0, "city": "Hyde Park", "ownership": 2, "id": 190503, "location.lat": 41.745806, "location.lon": -73.933231, "ownership_label": "Private nonprofit" }, "geometry": { "type": "Point", "coordinates": [ -73.933231, 41.745806 ] } },
{ "type": "Feature", "properties": { "name": "CUNY Bernard M Baruch College", "student_pop": 16154, "acceptance_rate": 0.4752, "avg_net_price": 3033.0, "graduation_rate": 0.7212, "earnings_10y_post_grad": 75971.0, "city": "New York", "ownership": 1, "id": 190512, "location.lat": 40.740238, "location.lon": -73.983417, "ownership_label": "State/City University of New York" }, "geometry": { "type": "Point", "coordinates": [ -73.983417, 40.740238 ] } },
{ "type": "Feature", "properties": { "name": "CUNY Borough of Manhattan Community College", "student_pop": 18623, "acceptance_rate": null, "avg_net_price": 4976.0, "graduation_rate": null, "earnings_10y_post_grad": 42306.0, "city": "New York", "ownership": 1, "id": 190521, "location.lat": 40.71879, "location.lon": -74.011826, "ownership_label": "State/City University of New York" }, "geometry": { "type": "Point", "coordinates": [ -74.011826, 40.71879 ] } },
{ "type": "Feature", "properties": { "name": "CUNY Brooklyn College", "student_pop": 10543, "acceptance_rate": 0.5836, "avg_net_price": 3103.0, "graduation_rate": 0.5386, "earnings_10y_post_grad": 60752.0, "city": "Brooklyn", "ownership": 1, "id": 190549, "location.lat": 40.631517, "location.lon": -73.949898, "ownership_label": "State/City University of New York" }, "geometry": { "type": "Point", "coordinates": [ -73.949898, 40.631517 ] } },
{ "type": "Feature", "properties": { "name": "College of Staten Island CUNY", "student_pop": 9657, "acceptance_rate": 0.9234, "avg_net_price": 5579.0, "graduation_rate": 0.3393, "earnings_10y_post_grad": 53501.0, "city": "Staten Island", "ownership": 1, "id": 190558, "location.lat": 40.601831, "location.lon": -74.14849, "ownership_label": "State/City University of New York" }, "geometry": { "type": "Point", "coordinates": [ -74.14849, 40.601831 ] } },
{ "type": "Feature", "properties": { "name": "CUNY City College", "student_pop": 12505, "acceptance_rate": 0.6002, "avg_net_price": 3776.0, "graduation_rate": 0.5682, "earnings_10y_post_grad": 66039.0, "city": "New York", "ownership": 1, "id": 190567, "location.lat": 40.819846, "location.lon": -73.948542, "ownership_label": "State/City University of New York" }, "geometry": { "type": "Point", "coordinates": [ -73.948542, 40.819846 ] } },
{ "type": "Feature", "properties": { "name": "CUNY Hostos Community College", "student_pop": 4900, "acceptance_rate": null, "avg_net_price": 5297.0, "graduation_rate": null, "earnings_10y_post_grad": 40485.0, "city": "Bronx", "ownership": 1, "id": 190585, "location.lat": 40.81812, "location.lon": -73.926759, "ownership_label": "State/City University of New York" }, "geometry": { "type": "Point", "coordinates": [ -73.926759, 40.81812 ] } },
{ "type": "Feature", "properties": { "name": "CUNY Hunter College", "student_pop": 16289, "acceptance_rate": 0.538, "avg_net_price": 2984.0, "graduation_rate": 0.5686, "earnings_10y_post_grad": 63163.0, "city": "New York", "ownership": 1, "id": 190594, "location.lat": 40.768669, "location.lon": -73.964795, "ownership_label": "State/City University of New York" }, "geometry": { "type": "Point", "coordinates": [ -73.964795, 40.768669 ] } },
{ "type": "Feature", "properties": { "name": "CUNY John Jay College of Criminal Justice", "student_pop": 11590, "acceptance_rate": 0.5711, "avg_net_price": 3203.0, "graduation_rate": 0.5583, "earnings_10y_post_grad": 56195.0, "city": "New York", "ownership": 1, "id": 190600, "location.lat": 40.770351, "location.lon": -73.98841, "ownership_label": "State/City University of New York" }, "geometry": { "type": "Point", "coordinates": [ -73.98841, 40.770351 ] } },
{ "type": "Feature", "properties": { "name": "CUNY Kingsborough Community College", "student_pop": 7670, "acceptance_rate": null, "avg_net_price": 5606.0, "graduation_rate": null, "earnings_10y_post_grad": 42621.0, "city": "Brooklyn", "ownership": 1, "id": 190619, "location.lat": 40.577222, "location.lon": -73.935812, "ownership_label": "State/City University of New York" }, "geometry": { "type": "Point", "coordinates": [ -73.935812, 40.577222 ] } },
{ "type": "Feature", "properties": { "name": "CUNY LaGuardia Community College", "student_pop": 11254, "acceptance_rate": null, "avg_net_price": 6120.0, "graduation_rate": null, "earnings_10y_post_grad": 41653.0, "city": "Long Island City", "ownership": 1, "id": 190628, "location.lat": 40.7445, "location.lon": -73.935057, "ownership_label": "State/City University of New York" }, "geometry": { "type": "Point", "coordinates": [ -73.935057, 40.7445 ] } },
{ "type": "Feature", "properties": { "name": "CUNY Lehman College", "student_pop": 10696, "acceptance_rate": 0.5658, "avg_net_price": 3148.0, "graduation_rate": 0.5128, "earnings_10y_post_grad": 58013.0, "city": "Bronx", "ownership": 1, "id": 190637, "location.lat": 40.872962, "location.lon": -73.895379, "ownership_label": "State/City University of New York" }, "geometry": { "type": "Point", "coordinates": [ -73.895379, 40.872962 ] } },
{ "type": "Feature", "properties": { "name": "CUNY Medgar Evers College", "student_pop": 3233, "acceptance_rate": 0.8605, "avg_net_price": 5718.0, "graduation_rate": 0.1977, "earnings_10y_post_grad": 46498.0, "city": "Brooklyn", "ownership": 1, "id": 190646, "location.lat": 40.666256, "location.lon": -73.957076, "ownership_label": "State/City University of New York" }, "geometry": { "type": "Point", "coordinates": [ -73.957076, 40.666256 ] } },
{ "type": "Feature", "properties": { "name": "CUNY New York City College of Technology", "student_pop": 13580, "acceptance_rate": 0.8029, "avg_net_price": 5127.0, "graduation_rate": 0.2147, "earnings_10y_post_grad": 49365.0, "city": "Brooklyn", "ownership": 1, "id": 190655, "location.lat": 40.695483, "location.lon": -73.987856, "ownership_label": "State/City University of New York" }, "geometry": { "type": "Point", "coordinates": [ -73.987856, 40.695483 ] } },
{ "type": "Feature", "properties": { "name": "CUNY Queens College", "student_pop": 12550, "acceptance_rate": 0.6435, "avg_net_price": 4195.0, "graduation_rate": 0.5325, "earnings_10y_post_grad": 62763.0, "city": "Queens", "ownership": 1, "id": 190664, "location.lat": 40.736416, "location.lon": -73.820053, "ownership_label": "State/City University of New York" }, "geometry": { "type": "Point", "coordinates": [ -73.820053, 40.736416 ] } },
{ "type": "Feature", "properties": { "name": "CUNY Queensborough Community College", "student_pop": 8940, "acceptance_rate": null, "avg_net_price": 4458.0, "graduation_rate": null, "earnings_10y_post_grad": 44214.0, "city": "Bayside", "ownership": 1, "id": 190673, "location.lat": 40.755481, "location.lon": -73.756656, "ownership_label": "State/City University of New York" }, "geometry": { "type": "Point", "coordinates": [ -73.756656, 40.755481 ] } },
{ "type": "Feature", "properties": { "name": "CUNY York College", "student_pop": 4345, "acceptance_rate": 0.641, "avg_net_price": 4456.0, "graduation_rate": 0.3225, "earnings_10y_post_grad": 56945.0, "city": "Jamaica", "ownership": 1, "id": 190691, "location.lat": 40.701576, "location.lon": -73.796313, "ownership_label": "State/City University of New York" }, "geometry": { "type": "Point", "coordinates": [ -73.796313, 40.701576 ] } },
{ "type": "Feature", "properties": { "name": "D'Youville  University", "student_pop": 1258, "acceptance_rate": 0.8137, "avg_net_price": 20433.0, "graduation_rate": 0.6749, "earnings_10y_post_grad": 66942.0, "city": "Buffalo", "ownership": 2, "id": 190716, "location.lat": 42.902636, "location.lon": -78.890868, "ownership_label": "Private nonprofit" }, "geometry": { "type": "Point", "coordinates": [ -78.890868, 42.902636 ] } },
{ "type": "Feature", "properties": { "name": "Daemen University", "student_pop": 1643, "acceptance_rate": 0.6826, "avg_net_price": 18693.0, "graduation_rate": 0.5888, "earnings_10y_post_grad": 61808.0, "city": "Amherst", "ownership": 2, "id": 190725, "location.lat": 42.965605, "location.lon": -78.788111, "ownership_label": "Private nonprofit" }, "geometry": { "type": "Point", "coordinates": [ -78.788111, 42.965605 ] } },
{ "type": "Feature", "properties": { "name": "Dominican University New York", "student_pop": 1105, "acceptance_rate": 0.633, "avg_net_price": 41832.0, "graduation_rate": 0.5251, "earnings_10y_post_grad": 61171.0, "city": "Orangeburg", "ownership": 2, "id": 190761, "location.lat": 41.047419, "location.lon": -73.950555, "ownership_label": "Private nonprofit" }, "geometry": { "type": "Point", "coordinates": [ -73.950555, 41.047419 ] } },
{ "type": "Feature", "properties": { "name": "Dutchess Community College", "student_pop": 3824, "acceptance_rate": null, "avg_net_price": 10065.0, "graduation_rate": null, "earnings_10y_post_grad": 43929.0, "city": "Poughkeepsie", "ownership": 1, "id": 190840, "location.lat": 41.724245, "location.lon": -73.904652, "ownership_label": "State/City University of New York" }, "geometry": { "type": "Point", "coordinates": [ -73.904652, 41.724245 ] } },
{ "type": "Feature", "properties": { "name": "Elmira College", "student_pop": 708, "acceptance_rate": 0.7696, "avg_net_price": 22386.0, "graduation_rate": 0.6471, "earnings_10y_post_grad": 57550.0, "city": "Elmira", "ownership": 2, "id": 190983, "location.lat": 42.0961, "location.lon": -76.813459, "ownership_label": "Private nonprofit" }, "geometry": { "type": "Point", "coordinates": [ -76.813459, 42.0961 ] } },
{ "type": "Feature", "properties": { "name": "Erie Community College", "student_pop": 6099, "acceptance_rate": null, "avg_net_price": 7765.0, "graduation_rate": null, "earnings_10y_post_grad": 41228.0, "city": "Buffalo", "ownership": 1, "id": 191083, "location.lat": 42.881771, "location.lon": -78.872679, "ownership_label": "State/City University of New York" }, "geometry": { "type": "Point", "coordinates": [ -78.872679, 42.881771 ] } },
{ "type": "Feature", "properties": { "name": "Fashion Institute of Technology", "student_pop": 7637, "acceptance_rate": 0.6024, "avg_net_price": 19095.0, "graduation_rate": 0.8068, "earnings_10y_post_grad": 62696.0, "city": "New York", "ownership": 1, "id": 191126, "location.lat": 40.74731, "location.lon": -73.994781, "ownership_label": "State/City University of New York" }, "geometry": { "type": "Point", "coordinates": [ -73.994781, 40.74731 ] } },
{ "type": "Feature", "properties": { "name": "Finger Lakes Community College", "student_pop": 2980, "acceptance_rate": null, "avg_net_price": 13898.0, "graduation_rate": null, "earnings_10y_post_grad": 40054.0, "city": "Canandaigua", "ownership": 1, "id": 191199, "location.lat": 42.867556, "location.lon": -77.241801, "ownership_label": "State/City University of New York" }, "geometry": { "type": "Point", "coordinates": [ -77.241801, 42.867556 ] } },
{ "type": "Feature", "properties": { "name": "Five Towns College", "student_pop": 547, "acceptance_rate": 0.5382, "avg_net_price": 22992.0, "graduation_rate": 0.5532, "earnings_10y_post_grad": 35887.0, "city": "Dix Hills", "ownership": 3, "id": 191205, "location.lat": 40.794506, "location.lon": -73.369348, "ownership_label": "Private for-profit" }, "geometry": { "type": "Point", "coordinates": [ -73.369348, 40.794506 ] } },
{ "type": "Feature", "properties": { "name": "Fordham University", "student_pop": 10512, "acceptance_rate": 0.5931, "avg_net_price": 44338.0, "graduation_rate": 0.8191, "earnings_10y_post_grad": 85569.0, "city": "Bronx", "ownership": 2, "id": 191241, "location.lat": 40.859354, "location.lon": -73.882705, "ownership_label": "Private nonprofit" }, "geometry": { "type": "Point", "coordinates": [ -73.882705, 40.859354 ] } },
{ "type": "Feature", "properties": { "name": "Fulton-Montgomery Community College", "student_pop": 1001, "acceptance_rate": null, "avg_net_price": 6696.0, "graduation_rate": null, "earnings_10y_post_grad": 39535.0, "city": "Johnstown", "ownership": 1, "id": 191302, "location.lat": 42.983805, "location.lon": -74.297492, "ownership_label": "State/City University of New York" }, "geometry": { "type": "Point", "coordinates": [ -74.297492, 42.983805 ] } },
{ "type": "Feature", "properties": { "name": "Genesee Community College", "student_pop": 1973, "acceptance_rate": null, "avg_net_price": 8334.0, "graduation_rate": null, "earnings_10y_post_grad": 39674.0, "city": "Batavia", "ownership": 1, "id": 191339, "location.lat": 43.017016, "location.lon": -78.138079, "ownership_label": "State/City University of New York" }, "geometry": { "type": "Point", "coordinates": [ -78.138079, 43.017016 ] } },
{ "type": "Feature", "properties": { "name": "Hamilton College", "student_pop": 2030, "acceptance_rate": 0.1362, "avg_net_price": 28985.0, "graduation_rate": 0.9063, "earnings_10y_post_grad": 78411.0, "city": "Clinton", "ownership": 2, "id": 191515, "location.lat": 43.050245, "location.lon": -75.408195, "ownership_label": "Private nonprofit" }, "geometry": { "type": "Point", "coordinates": [ -75.408195, 43.050245 ] } },
{ "type": "Feature", "properties": { "name": "Hartwick College", "student_pop": 1087, "acceptance_rate": 0.696, "avg_net_price": 31320.0, "graduation_rate": 0.5332, "earnings_10y_post_grad": 61107.0, "city": "Oneonta", "ownership": 2, "id": 191533, "location.lat": 42.457599, "location.lon": -75.071994, "ownership_label": "Private nonprofit" }, "geometry": { "type": "Point", "coordinates": [ -75.071994, 42.457599 ] } },
{ "type": "Feature", "properties": { "name": "Herkimer County Community College", "student_pop": 1168, "acceptance_rate": null, "avg_net_price": 13419.0, "graduation_rate": null, "earnings_10y_post_grad": 39199.0, "city": "Herkimer", "ownership": 1, "id": 191612, "location.lat": 43.032738, "location.lon": -75.007206, "ownership_label": "State/City University of New York" }, "geometry": { "type": "Point", "coordinates": [ -75.007206, 43.032738 ] } },
{ "type": "Feature", "properties": { "name": "Hilbert College", "student_pop": 921, "acceptance_rate": 0.972, "avg_net_price": 22723.0, "graduation_rate": 0.5631, "earnings_10y_post_grad": 48309.0, "city": "Hamburg", "ownership": 2, "id": 191621, "location.lat": 42.75464, "location.lon": -78.820257, "ownership_label": "Private nonprofit" }, "geometry": { "type": "Point", "coordinates": [ -78.820257, 42.75464 ] } },
{ "type": "Feature", "properties": { "name": "Hobart William Smith Colleges", "student_pop": 1786, "acceptance_rate": 0.6399, "avg_net_price": 31563.0, "graduation_rate": 0.7725, "earnings_10y_post_grad": 68831.0, "city": "Geneva", "ownership": 2, "id": 191630, "location.lat": 42.858131, "location.lon": -76.985516, "ownership_label": "Private nonprofit" }, "geometry": { "type": "Point", "coordinates": [ -76.985516, 42.858131 ] } },
{ "type": "Feature", "properties": { "name": "Hofstra University", "student_pop": 6488, "acceptance_rate": 0.6808, "avg_net_price": 34176.0, "graduation_rate": 0.6854, "earnings_10y_post_grad": 69039.0, "city": "Hempstead", "ownership": 2, "id": 191649, "location.lat": 40.715959, "location.lon": -73.60078, "ownership_label": "Private nonprofit" }, "geometry": { "type": "Point", "coordinates": [ -73.60078, 40.715959 ] } },
{ "type": "Feature", "properties": { "name": "Houghton University", "student_pop": 753, "acceptance_rate": 0.8866, "avg_net_price": 20519.0, "graduation_rate": 0.6522, "earnings_10y_post_grad": 46721.0, "city": "Houghton", "ownership": 2, "id": 191676, "location.lat": 42.426137, "location.lon": -78.155426, "ownership_label": "Private nonprofit" }, "geometry": { "type": "Point", "coordinates": [ -78.155426, 42.426137 ] } },
{ "type": "Feature", "properties": { "name": "Hudson Valley Community College", "student_pop": 6499, "acceptance_rate": null, "avg_net_price": 8501.0, "graduation_rate": null, "earnings_10y_post_grad": 45460.0, "city": "Troy", "ownership": 1, "id": 191719, "location.lat": 42.696509, "location.lon": -73.683734, "ownership_label": "State/City University of New York" }, "geometry": { "type": "Point", "coordinates": [ -73.683734, 42.696509 ] } },
{ "type": "Feature", "properties": { "name": "Iona University", "student_pop": 2951, "acceptance_rate": 0.8694, "avg_net_price": 29188.0, "graduation_rate": 0.56, "earnings_10y_post_grad": 73595.0, "city": "New Rochelle", "ownership": 2, "id": 191931, "location.lat": 40.925725, "location.lon": -73.788046, "ownership_label": "Private nonprofit" }, "geometry": { "type": "Point", "coordinates": [ -73.788046, 40.925725 ] } },
{ "type": "Feature", "properties": { "name": "Ithaca College", "student_pop": 4242, "acceptance_rate": 0.6901, "avg_net_price": 33926.0, "graduation_rate": 0.7623, "earnings_10y_post_grad": 63548.0, "city": "Ithaca", "ownership": 2, "id": 191968, "location.lat": 42.422154, "location.lon": -76.494136, "ownership_label": "Private nonprofit" }, "geometry": { "type": "Point", "coordinates": [ -76.494136, 42.422154 ] } },
{ "type": "Feature", "properties": { "name": "Jamestown Community College", "student_pop": 1739, "acceptance_rate": null, "avg_net_price": 9850.0, "graduation_rate": null, "earnings_10y_post_grad": 38242.0, "city": "Jamestown", "ownership": 1, "id": 191986, "location.lat": 42.1146, "location.lon": -79.218967, "ownership_label": "State/City University of New York" }, "geometry": { "type": "Point", "coordinates": [ -79.218967, 42.1146 ] } },
{ "type": "Feature", "properties": { "name": "Jefferson Community College", "student_pop": 1499, "acceptance_rate": null, "avg_net_price": 11923.0, "graduation_rate": null, "earnings_10y_post_grad": 39991.0, "city": "Watertown", "ownership": 1, "id": 192022, "location.lat": 43.992827, "location.lon": -75.935051, "ownership_label": "State/City University of New York" }, "geometry": { "type": "Point", "coordinates": [ -75.935051, 43.992827 ] } },
{ "type": "Feature", "properties": { "name": "The Juilliard School", "student_pop": 468, "acceptance_rate": 0.0915, "avg_net_price": 43571.0, "graduation_rate": 0.9256, "earnings_10y_post_grad": 37827.0, "city": "New York", "ownership": 2, "id": 192110, "location.lat": 40.773725, "location.lon": -73.982913, "ownership_label": "Private nonprofit" }, "geometry": { "type": "Point", "coordinates": [ -73.982913, 40.773725 ] } },
{ "type": "Feature", "properties": { "name": "Keuka College", "student_pop": 966, "acceptance_rate": 0.6808, "avg_net_price": 24338.0, "graduation_rate": 0.5836, "earnings_10y_post_grad": 58289.0, "city": "Keuka Park", "ownership": 2, "id": 192192, "location.lat": 42.615253, "location.lon": -77.090562, "ownership_label": "Private nonprofit" }, "geometry": { "type": "Point", "coordinates": [ -77.090562, 42.615253 ] } },
{ "type": "Feature", "properties": { "name": "LIM College", "student_pop": 1187, "acceptance_rate": 0.959, "avg_net_price": 38667.0, "graduation_rate": 0.5087, "earnings_10y_post_grad": 58956.0, "city": "New York", "ownership": 3, "id": 192271, "location.lat": 40.754991, "location.lon": -73.979413, "ownership_label": "Private for-profit" }, "geometry": { "type": "Point", "coordinates": [ -73.979413, 40.754991 ] } },
{ "type": "Feature", "properties": { "name": "Le Moyne College", "student_pop": 2439, "acceptance_rate": 0.8298, "avg_net_price": 22277.0, "graduation_rate": 0.7313, "earnings_10y_post_grad": 62731.0, "city": "Syracuse", "ownership": 2, "id": 192323, "location.lat": 43.049192, "location.lon": -76.090435, "ownership_label": "Private nonprofit" }, "geometry": { "type": "Point", "coordinates": [ -76.090435, 43.049192 ] } },
{ "type": "Feature", "properties": { "name": "Long Island University", "student_pop": 5520, "acceptance_rate": 0.8616, "avg_net_price": 33062.0, "graduation_rate": 0.5707, "earnings_10y_post_grad": 59950.0, "city": "Brookville", "ownership": 2, "id": 192448, "location.lat": 40.820714, "location.lon": -73.593678, "ownership_label": "Private nonprofit" }, "geometry": { "type": "Point", "coordinates": [ -73.593678, 40.820714 ] } },
{ "type": "Feature", "properties": { "name": "Manhattan University", "student_pop": 2744, "acceptance_rate": 0.7894, "avg_net_price": 27256.0, "graduation_rate": 0.6371, "earnings_10y_post_grad": 86316.0, "city": "Riverdale", "ownership": 2, "id": 192703, "location.lat": 40.889756, "location.lon": -73.901893, "ownership_label": "Private nonprofit" }, "geometry": { "type": "Point", "coordinates": [ -73.901893, 40.889756 ] } },
{ "type": "Feature", "properties": { "name": "Manhattan School of Music", "student_pop": 539, "acceptance_rate": 0.4078, "avg_net_price": 51754.0, "graduation_rate": 0.7832, "earnings_10y_post_grad": 26878.0, "city": "New York", "ownership": 2, "id": 192712, "location.lat": 40.812312, "location.lon": -73.961334, "ownership_label": "Private nonprofit" }, "geometry": { "type": "Point", "coordinates": [ -73.961334, 40.812312 ] } },
{ "type": "Feature", "properties": { "name": "Manhattanville University", "student_pop": 1362, "acceptance_rate": 0.8734, "avg_net_price": 20991.0, "graduation_rate": 0.5842, "earnings_10y_post_grad": 58832.0, "city": "Purchase", "ownership": 2, "id": 192749, "location.lat": 41.032187, "location.lon": -73.715645, "ownership_label": "Private nonprofit" }, "geometry": { "type": "Point", "coordinates": [ -73.715645, 41.032187 ] } },
{ "type": "Feature", "properties": { "name": "Maria College of Albany", "student_pop": 656, "acceptance_rate": 0.4448, "avg_net_price": 13082.0, "graduation_rate": 0.3, "earnings_10y_post_grad": 55458.0, "city": "Albany", "ownership": 2, "id": 192785, "location.lat": 42.657789, "location.lon": -73.806287, "ownership_label": "Private nonprofit" }, "geometry": { "type": "Point", "coordinates": [ -73.806287, 42.657789 ] } },
{ "type": "Feature", "properties": { "name": "Marist University", "student_pop": 5182, "acceptance_rate": 0.5651, "avg_net_price": 41544.0, "graduation_rate": 0.796, "earnings_10y_post_grad": 77819.0, "city": "Poughkeepsie", "ownership": 2, "id": 192819, "location.lat": 41.720937, "location.lon": -73.935484, "ownership_label": "Private nonprofit" }, "geometry": { "type": "Point", "coordinates": [ -73.935484, 41.720937 ] } },
{ "type": "Feature", "properties": { "name": "Marymount Manhattan College", "student_pop": 1577, "acceptance_rate": 0.8261, "avg_net_price": 36861.0, "graduation_rate": 0.4904, "earnings_10y_post_grad": 49131.0, "city": "New York", "ownership": 2, "id": 192864, "location.lat": 40.768787, "location.lon": -73.959767, "ownership_label": "Private nonprofit" }, "geometry": { "type": "Point", "coordinates": [ -73.959767, 40.768787 ] } },
{ "type": "Feature", "properties": { "name": "Mercy University", "student_pop": 5735, "acceptance_rate": 0.8584, "avg_net_price": 14072.0, "graduation_rate": 0.4571, "earnings_10y_post_grad": 52055.0, "city": "Dobbs Ferry", "ownership": 2, "id": 193016, "location.lat": 41.021626, "location.lon": -73.874447, "ownership_label": "Private nonprofit" }, "geometry": { "type": "Point", "coordinates": [ -73.874447, 41.021626 ] } },
{ "type": "Feature", "properties": { "name": "Mohawk Valley Community College", "student_pop": 2950, "acceptance_rate": null, "avg_net_price": 8987.0, "graduation_rate": null, "earnings_10y_post_grad": 39850.0, "city": "Utica", "ownership": 1, "id": 193283, "location.lat": 43.076765, "location.lon": -75.219367, "ownership_label": "State/City University of New York" }, "geometry": { "type": "Point", "coordinates": [ -75.219367, 43.076765 ] } },
{ "type": "Feature", "properties": { "name": "Molloy University", "student_pop": 3162, "acceptance_rate": 0.8174, "avg_net_price": 24347.0, "graduation_rate": 0.6993, "earnings_10y_post_grad": 77789.0, "city": "Rockville Centre", "ownership": 2, "id": 193292, "location.lat": 40.685941, "location.lon": -73.626183, "ownership_label": "Private nonprofit" }, "geometry": { "type": "Point", "coordinates": [ -73.626183, 40.685941 ] } },
{ "type": "Feature", "properties": { "name": "Monroe University", "student_pop": 5701, "acceptance_rate": 0.6751, "avg_net_price": 14522.0, "graduation_rate": 0.5655, "earnings_10y_post_grad": 41236.0, "city": "Bronx", "ownership": 3, "id": 193308, "location.lat": 40.864459, "location.lon": -73.900215, "ownership_label": "Private for-profit" }, "geometry": { "type": "Point", "coordinates": [ -73.900215, 40.864459 ] } },
{ "type": "Feature", "properties": { "name": "Monroe Community College", "student_pop": 7623, "acceptance_rate": null, "avg_net_price": 6353.0, "graduation_rate": null, "earnings_10y_post_grad": 40174.0, "city": "Rochester", "ownership": 1, "id": 193326, "location.lat": 43.101036, "location.lon": -77.610136, "ownership_label": "State/City University of New York" }, "geometry": { "type": "Point", "coordinates": [ -77.610136, 43.101036 ] } },
{ "type": "Feature", "properties": { "name": "Mount Saint Mary College", "student_pop": 1148, "acceptance_rate": 0.8888, "avg_net_price": 25522.0, "graduation_rate": 0.6546, "earnings_10y_post_grad": 67705.0, "city": "Newburgh", "ownership": 2, "id": 193353, "location.lat": 41.513872, "location.lon": -74.012655, "ownership_label": "Private nonprofit" }, "geometry": { "type": "Point", "coordinates": [ -74.012655, 41.513872 ] } },
{ "type": "Feature", "properties": { "name": "University of Mount Saint Vincent", "student_pop": 2692, "acceptance_rate": 0.8511, "avg_net_price": 21696.0, "graduation_rate": 0.5683, "earnings_10y_post_grad": 65756.0, "city": "Bronx", "ownership": 2, "id": 193399, "location.lat": 40.913657, "location.lon": -73.908887, "ownership_label": "Private nonprofit" }, "geometry": { "type": "Point", "coordinates": [ -73.908887, 40.913657 ] } },
{ "type": "Feature", "properties": { "name": "Nassau Community College", "student_pop": 10630, "acceptance_rate": null, "avg_net_price": 7095.0, "graduation_rate": null, "earnings_10y_post_grad": 48248.0, "city": "Garden City", "ownership": 1, "id": 193478, "location.lat": 40.728872, "location.lon": -73.595286, "ownership_label": "State/City University of New York" }, "geometry": { "type": "Point", "coordinates": [ -73.595286, 40.728872 ] } },
{ "type": "Feature", "properties": { "name": "Nazareth University", "student_pop": 1873, "acceptance_rate": 0.7472, "avg_net_price": 29357.0, "graduation_rate": 0.7279, "earnings_10y_post_grad": 56458.0, "city": "Rochester", "ownership": 2, "id": 193584, "location.lat": 43.101576, "location.lon": -77.518579, "ownership_label": "Private nonprofit" }, "geometry": { "type": "Point", "coordinates": [ -77.518579, 43.101576 ] } },
{ "type": "Feature", "properties": { "name": "The New School", "student_pop": 6563, "acceptance_rate": 0.6347, "avg_net_price": 58741.0, "graduation_rate": 0.6937, "earnings_10y_post_grad": 52901.0, "city": "New York", "ownership": 2, "id": 193654, "location.lat": 40.735508, "location.lon": -73.997114, "ownership_label": "Private nonprofit" }, "geometry": { "type": "Point", "coordinates": [ -73.997114, 40.735508 ] } },
{ "type": "Feature", "properties": { "name": "New York University", "student_pop": 28663, "acceptance_rate": 0.0923, "avg_net_price": 37050.0, "graduation_rate": 0.8757, "earnings_10y_post_grad": 82509.0, "city": "New York", "ownership": 2, "id": 193900, "location.lat": 40.729452, "location.lon": -73.997264, "ownership_label": "Private nonprofit" }, "geometry": { "type": "Point", "coordinates": [ -73.997264, 40.729452 ] } },
{ "type": "Feature", "properties": { "name": "Niagara County Community College", "student_pop": 3084, "acceptance_rate": null, "avg_net_price": 6876.0, "graduation_rate": null, "earnings_10y_post_grad": 42285.0, "city": "Sanborn", "ownership": 1, "id": 193946, "location.lat": 43.147701, "location.lon": -78.87579, "ownership_label": "State/City University of New York" }, "geometry": { "type": "Point", "coordinates": [ -78.87579, 43.147701 ] } },
{ "type": "Feature", "properties": { "name": "Niagara University", "student_pop": 2653, "acceptance_rate": 0.8737, "avg_net_price": 17248.0, "graduation_rate": 0.7451, "earnings_10y_post_grad": 56196.0, "city": "Niagara University", "ownership": 2, "id": 193973, "location.lat": 43.137279, "location.lon": -79.036689, "ownership_label": "Private nonprofit" }, "geometry": { "type": "Point", "coordinates": [ -79.036689, 43.137279 ] } },
{ "type": "Feature", "properties": { "name": "North Country Community College", "student_pop": 819, "acceptance_rate": null, "avg_net_price": 11868.0, "graduation_rate": null, "earnings_10y_post_grad": 38276.0, "city": "Saranac Lake", "ownership": 1, "id": 194028, "location.lat": 44.318645, "location.lon": -74.119981, "ownership_label": "State/City University of New York" }, "geometry": { "type": "Point", "coordinates": [ -74.119981, 44.318645 ] } },
{ "type": "Feature", "properties": { "name": "New York Institute of Technology", "student_pop": 3440, "acceptance_rate": 0.8102, "avg_net_price": 22443.0, "graduation_rate": 0.5877, "earnings_10y_post_grad": 70080.0, "city": "Old Westbury", "ownership": 2, "id": 194091, "location.lat": 40.812447, "location.lon": -73.6078, "ownership_label": "Private nonprofit" }, "geometry": { "type": "Point", "coordinates": [ -73.6078, 40.812447 ] } },
{ "type": "Feature", "properties": { "name": "New York School of Interior Design", "student_pop": 427, "acceptance_rate": 0.6289, "avg_net_price": 45271.0, "graduation_rate": 0.6923, "earnings_10y_post_grad": 48041.0, "city": "New York", "ownership": 2, "id": 194116, "location.lat": 40.768615, "location.lon": -73.962404, "ownership_label": "Private nonprofit" }, "geometry": { "type": "Point", "coordinates": [ -73.962404, 40.768615 ] } },
{ "type": "Feature", "properties": { "name": "Onondaga Community College", "student_pop": 4456, "acceptance_rate": null, "avg_net_price": 8562.0, "graduation_rate": null, "earnings_10y_post_grad": 41190.0, "city": "Syracuse", "ownership": 1, "id": 194222, "location.lat": 43.006329, "location.lon": -76.197878, "ownership_label": "State/City University of New York" }, "geometry": { "type": "Point", "coordinates": [ -76.197878, 43.006329 ] } },
{ "type": "Feature", "properties": { "name": "Orange County Community College", "student_pop": 3989, "acceptance_rate": null, "avg_net_price": 6794.0, "graduation_rate": null, "earnings_10y_post_grad": 44117.0, "city": "Middletown", "ownership": 1, "id": 194240, "location.lat": 41.438629, "location.lon": -74.426028, "ownership_label": "State/City University of New York" }, "geometry": { "type": "Point", "coordinates": [ -74.426028, 41.438629 ] } },
{ "type": "Feature", "properties": { "name": "Pace University", "student_pop": 7665, "acceptance_rate": 0.7592, "avg_net_price": 30892.0, "graduation_rate": 0.6003, "earnings_10y_post_grad": 70378.0, "city": "New York", "ownership": 2, "id": 194310, "location.lat": 40.711014, "location.lon": -74.004719, "ownership_label": "Private nonprofit" }, "geometry": { "type": "Point", "coordinates": [ -74.004719, 40.711014 ] } },
{ "type": "Feature", "properties": { "name": "Paul Smiths College of Arts and Science", "student_pop": 579, "acceptance_rate": 0.7653, "avg_net_price": 26683.0, "graduation_rate": 0.5055, "earnings_10y_post_grad": 46145.0, "city": "Paul Smiths", "ownership": 2, "id": 194392, "location.lat": 44.433965, "location.lon": -74.252675, "ownership_label": "Private nonprofit" }, "geometry": { "type": "Point", "coordinates": [ -74.252675, 44.433965 ] } },
{ "type": "Feature", "properties": { "name": "Plaza College", "student_pop": 984, "acceptance_rate": 0.3, "avg_net_price": 19860.0, "graduation_rate": 0.6762, "earnings_10y_post_grad": 31519.0, "city": "Forest Hills", "ownership": 3, "id": 194499, "location.lat": 40.714894, "location.lon": -73.831156, "ownership_label": "Private for-profit" }, "geometry": { "type": "Point", "coordinates": [ -73.831156, 40.714894 ] } },
{ "type": "Feature", "properties": { "name": "Pratt Institute-Main", "student_pop": 3910, "acceptance_rate": 0.7325, "avg_net_price": 52659.0, "graduation_rate": 0.7354, "earnings_10y_post_grad": 54295.0, "city": "Brooklyn", "ownership": 2, "id": 194578, "location.lat": 40.691297, "location.lon": -73.96431, "ownership_label": "Private nonprofit" }, "geometry": { "type": "Point", "coordinates": [ -73.96431, 40.691297 ] } },
{ "type": "Feature", "properties": { "name": "Rensselaer Polytechnic Institute", "student_pop": 5714, "acceptance_rate": 0.6347, "avg_net_price": 36228.0, "graduation_rate": 0.8362, "earnings_10y_post_grad": 102051.0, "city": "Troy", "ownership": 2, "id": 194824, "location.lat": 42.729978, "location.lon": -73.676646, "ownership_label": "Private nonprofit" }, "geometry": { "type": "Point", "coordinates": [ -73.676646, 42.729978 ] } },
{ "type": "Feature", "properties": { "name": "Roberts Wesleyan University", "student_pop": 1149, "acceptance_rate": 0.7063, "avg_net_price": 23130.0, "graduation_rate": 0.6667, "earnings_10y_post_grad": 55031.0, "city": "Rochester", "ownership": 2, "id": 194958, "location.lat": 43.125755, "location.lon": -77.798498, "ownership_label": "Private nonprofit" }, "geometry": { "type": "Point", "coordinates": [ -77.798498, 43.125755 ] } },
{ "type": "Feature", "properties": { "name": "Rochester Institute of Technology", "student_pop": 13215, "acceptance_rate": 0.6693, "avg_net_price": 34906.0, "graduation_rate": 0.6989, "earnings_10y_post_grad": 76571.0, "city": "Rochester", "ownership": 2, "id": 195003, "location.lat": 43.084188, "location.lon": -77.67386, "ownership_label": "Private nonprofit" }, "geometry": { "type": "Point", "coordinates": [ -77.67386, 43.084188 ] } },
{ "type": "Feature", "properties": { "name": "University of Rochester", "student_pop": 6331, "acceptance_rate": 0.4008, "avg_net_price": 29278.0, "graduation_rate": 0.8543, "earnings_10y_post_grad": 79042.0, "city": "Rochester", "ownership": 2, "id": 195030, "location.lat": 43.126397, "location.lon": -77.631202, "ownership_label": "Private nonprofit" }, "geometry": { "type": "Point", "coordinates": [ -77.631202, 43.126397 ] } },
{ "type": "Feature", "properties": { "name": "Rockland Community College", "student_pop": 3834, "acceptance_rate": null, "avg_net_price": 11282.0, "graduation_rate": null, "earnings_10y_post_grad": 50243.0, "city": "Suffern", "ownership": 1, "id": 195058, "location.lat": 41.133929, "location.lon": -74.085969, "ownership_label": "State/City University of New York" }, "geometry": { "type": "Point", "coordinates": [ -74.085969, 41.133929 ] } },
{ "type": "Feature", "properties": { "name": "St Bonaventure University", "student_pop": 2012, "acceptance_rate": 0.8165, "avg_net_price": 27074.0, "graduation_rate": 0.6673, "earnings_10y_post_grad": 57214.0, "city": "Saint Bonaventure", "ownership": 2, "id": 195164, "location.lat": 42.080191, "location.lon": -78.481107, "ownership_label": "Private nonprofit" }, "geometry": { "type": "Point", "coordinates": [ -78.481107, 42.080191 ] } },
{ "type": "Feature", "properties": { "name": "St. Francis College", "student_pop": 1684, "acceptance_rate": null, "avg_net_price": 18129.0, "graduation_rate": 0.5464, "earnings_10y_post_grad": 58099.0, "city": "Brooklyn", "ownership": 2, "id": 195173, "location.lat": 40.690233, "location.lon": -73.986559, "ownership_label": "Private nonprofit" }, "geometry": { "type": "Point", "coordinates": [ -73.986559, 40.690233 ] } },
{ "type": "Feature", "properties": { "name": "St Lawrence University", "student_pop": 1918, "acceptance_rate": 0.5434, "avg_net_price": 28651.0, "graduation_rate": 0.7906, "earnings_10y_post_grad": 67258.0, "city": "Canton", "ownership": 2, "id": 195216, "location.lat": 44.589879, "location.lon": -75.161343, "ownership_label": "Private nonprofit" }, "geometry": { "type": "Point", "coordinates": [ -75.161343, 44.589879 ] } },
{ "type": "Feature", "properties": { "name": "St. Thomas Aquinas College", "student_pop": 972, "acceptance_rate": 0.9305, "avg_net_price": 19994.0, "graduation_rate": 0.5404, "earnings_10y_post_grad": 62909.0, "city": "Sparkill", "ownership": 2, "id": 195243, "location.lat": 41.041576, "location.lon": -73.936799, "ownership_label": "Private nonprofit" }, "geometry": { "type": "Point", "coordinates": [ -73.936799, 41.041576 ] } },
{ "type": "Feature", "properties": { "name": "Schenectady County Community College", "student_pop": 1507, "acceptance_rate": null, "avg_net_price": 8947.0, "graduation_rate": null, "earnings_10y_post_grad": 40902.0, "city": "Schenectady", "ownership": 1, "id": 195322, "location.lat": 42.814412, "location.lon": -73.950008, "ownership_label": "State/City University of New York" }, "geometry": { "type": "Point", "coordinates": [ -73.950008, 42.814412 ] } },
{ "type": "Feature", "properties": { "name": "Siena University", "student_pop": 3409, "acceptance_rate": 0.6902, "avg_net_price": 33733.0, "graduation_rate": 0.7473, "earnings_10y_post_grad": 76079.0, "city": "Loudonville", "ownership": 2, "id": 195474, "location.lat": 42.717602, "location.lon": -73.7526, "ownership_label": "Private nonprofit" }, "geometry": { "type": "Point", "coordinates": [ -73.7526, 42.717602 ] } },
{ "type": "Feature", "properties": { "name": "Skidmore College", "student_pop": 2694, "acceptance_rate": 0.2105, "avg_net_price": 32297.0, "graduation_rate": 0.8257, "earnings_10y_post_grad": 69363.0, "city": "Saratoga Springs", "ownership": 2, "id": 195526, "location.lat": 43.097035, "location.lon": -73.785335, "ownership_label": "Private nonprofit" }, "geometry": { "type": "Point", "coordinates": [ -73.785335, 43.097035 ] } },
{ "type": "Feature", "properties": { "name": "St. Joseph's University-New York", "student_pop": 3144, "acceptance_rate": 0.7205, "avg_net_price": 19035.0, "graduation_rate": 0.6878, "earnings_10y_post_grad": 63905.0, "city": "Brooklyn", "ownership": 2, "id": 195544, "location.lat": 40.690418, "location.lon": -73.967664, "ownership_label": "Private nonprofit" }, "geometry": { "type": "Point", "coordinates": [ -73.967664, 40.690418 ] } },
{ "type": "Feature", "properties": { "name": "St. John Fisher University", "student_pop": 2565, "acceptance_rate": 0.664, "avg_net_price": 28945.0, "graduation_rate": 0.7417, "earnings_10y_post_grad": 66944.0, "city": "Rochester", "ownership": 2, "id": 195720, "location.lat": 43.116259, "location.lon": -77.513056, "ownership_label": "Private nonprofit" }, "geometry": { "type": "Point", "coordinates": [ -77.513056, 43.116259 ] } },
{ "type": "Feature", "properties": { "name": "St. John's University-New York", "student_pop": 9477, "acceptance_rate": 0.8343, "avg_net_price": 29999.0, "graduation_rate": 0.6609, "earnings_10y_post_grad": 69571.0, "city": "Queens", "ownership": 2, "id": 195809, "location.lat": 40.722523, "location.lon": -73.796104, "ownership_label": "Private nonprofit" }, "geometry": { "type": "Point", "coordinates": [ -73.796104, 40.722523 ] } },
{ "type": "Feature", "properties": { "name": "Sullivan County Community College", "student_pop": 836, "acceptance_rate": null, "avg_net_price": 8482.0, "graduation_rate": null, "earnings_10y_post_grad": 38354.0, "city": "Loch Sheldrake", "ownership": 1, "id": 195988, "location.lat": 41.7641, "location.lon": -74.667769, "ownership_label": "State/City University of New York" }, "geometry": { "type": "Point", "coordinates": [ -74.667769, 41.7641 ] } },
{ "type": "Feature", "properties": { "name": "SUNY College of Technology at Alfred", "student_pop": 3563, "acceptance_rate": 0.7568, "avg_net_price": 15016.0, "graduation_rate": 0.5506, "earnings_10y_post_grad": 50445.0, "city": "Alfred", "ownership": 1, "id": 196006, "location.lat": 42.255262, "location.lon": -77.794632, "ownership_label": "State/City University of New York" }, "geometry": { "type": "Point", "coordinates": [ -77.794632, 42.255262 ] } },
{ "type": "Feature", "properties": { "name": "SUNY College of Technology at Canton", "student_pop": 2741, "acceptance_rate": 0.9215, "avg_net_price": 15268.0, "graduation_rate": 0.3845, "earnings_10y_post_grad": 47860.0, "city": "Canton", "ownership": 1, "id": 196015, "location.lat": 44.604096, "location.lon": -75.182906, "ownership_label": "State/City University of New York" }, "geometry": { "type": "Point", "coordinates": [ -75.182906, 44.604096 ] } },
{ "type": "Feature", "properties": { "name": "SUNY College of Technology at Delhi", "student_pop": 2843, "acceptance_rate": 0.8901, "avg_net_price": 17225.0, "graduation_rate": 0.4543, "earnings_10y_post_grad": 51629.0, "city": "Delhi", "ownership": 1, "id": 196024, "location.lat": 42.269859, "location.lon": -74.924612, "ownership_label": "State/City University of New York" }, "geometry": { "type": "Point", "coordinates": [ -74.924612, 42.269859 ] } },
{ "type": "Feature", "properties": { "name": "SUNY College of Agriculture and Technology at Cobleskill", "student_pop": 1904, "acceptance_rate": 0.8402, "avg_net_price": 18701.0, "graduation_rate": 0.4234, "earnings_10y_post_grad": 45030.0, "city": "Cobleskill", "ownership": 1, "id": 196033, "location.lat": 42.672534, "location.lon": -74.498258, "ownership_label": "State/City University of New York" }, "geometry": { "type": "Point", "coordinates": [ -74.498258, 42.672534 ] } },
{ "type": "Feature", "properties": { "name": "Farmingdale State College", "student_pop": 9552, "acceptance_rate": 0.6329, "avg_net_price": 10867.0, "graduation_rate": 0.5278, "earnings_10y_post_grad": 69781.0, "city": "Farmingdale", "ownership": 1, "id": 196042, "location.lat": 40.754224, "location.lon": -73.42832, "ownership_label": "State/City University of New York" }, "geometry": { "type": "Point", "coordinates": [ -73.42832, 40.754224 ] } },
{ "type": "Feature", "properties": { "name": "SUNY Morrisville", "student_pop": 1923, "acceptance_rate": 0.9154, "avg_net_price": 15939.0, "graduation_rate": 0.2808, "earnings_10y_post_grad": 43295.0, "city": "Morrisville", "ownership": 1, "id": 196051, "location.lat": 42.893962, "location.lon": -75.640583, "ownership_label": "State/City University of New York" }, "geometry": { "type": "Point", "coordinates": [ -75.640583, 42.893962 ] } },
{ "type": "Feature", "properties": { "name": "University at Albany", "student_pop": 12564, "acceptance_rate": 0.691, "avg_net_price": 17167.0, "graduation_rate": 0.6145, "earnings_10y_post_grad": 67979.0, "city": "Albany", "ownership": 1, "id": 196060, "location.lat": 42.685489, "location.lon": -73.824662, "ownership_label": "State/City University of New York" }, "geometry": { "type": "Point", "coordinates": [ -73.824662, 42.685489 ] } },
{ "type": "Feature", "properties": { "name": "Binghamton University", "student_pop": 14655, "acceptance_rate": 0.3861, "avg_net_price": 21620.0, "graduation_rate": 0.8162, "earnings_10y_post_grad": 80596.0, "city": "Vestal", "ownership": 1, "id": 196079, "location.lat": 42.087868, "location.lon": -75.966889, "ownership_label": "State/City University of New York" }, "geometry": { "type": "Point", "coordinates": [ -75.966889, 42.087868 ] } },
{ "type": "Feature", "properties": { "name": "University at Buffalo", "student_pop": 20112, "acceptance_rate": 0.7418, "avg_net_price": 20995.0, "graduation_rate": 0.7518, "earnings_10y_post_grad": 70814.0, "city": "Buffalo", "ownership": 1, "id": 196088, "location.lat": 43.000942, "location.lon": -78.789458, "ownership_label": "State/City University of New York" }, "geometry": { "type": "Point", "coordinates": [ -78.789458, 43.000942 ] } },
{ "type": "Feature", "properties": { "name": "Stony Brook University", "student_pop": 18101, "acceptance_rate": 0.4904, "avg_net_price": 18784.0, "graduation_rate": 0.7556, "earnings_10y_post_grad": 74502.0, "city": "Stony Brook", "ownership": 1, "id": 196097, "location.lat": 40.91476, "location.lon": -73.12046, "ownership_label": "State/City University of New York" }, "geometry": { "type": "Point", "coordinates": [ -73.12046, 40.91476 ] } },
{ "type": "Feature", "properties": { "name": "SUNY College of Environmental Science and Forestry", "student_pop": 1839, "acceptance_rate": 0.6328, "avg_net_price": 18952.0, "graduation_rate": 0.6632, "earnings_10y_post_grad": 55763.0, "city": "Syracuse", "ownership": 1, "id": 196103, "location.lat": 43.034765, "location.lon": -76.138724, "ownership_label": "State/City University of New York" }, "geometry": { "type": "Point", "coordinates": [ -76.138724, 43.034765 ] } },
{ "type": "Feature", "properties": { "name": "SUNY Polytechnic Institute", "student_pop": 1849, "acceptance_rate": 0.8135, "avg_net_price": 14164.0, "graduation_rate": 0.5508, "earnings_10y_post_grad": 64355.0, "city": "Utica", "ownership": 1, "id": 196112, "location.lat": 43.137701, "location.lon": -75.229841, "ownership_label": "State/City University of New York" }, "geometry": { "type": "Point", "coordinates": [ -75.229841, 43.137701 ] } },
{ "type": "Feature", "properties": { "name": "SUNY Brockport", "student_pop": 5784, "acceptance_rate": 0.7068, "avg_net_price": 16353.0, "graduation_rate": 0.5513, "earnings_10y_post_grad": 54496.0, "city": "Brockport", "ownership": 1, "id": 196121, "location.lat": 43.211926, "location.lon": -77.947188, "ownership_label": "State/City University of New York" }, "geometry": { "type": "Point", "coordinates": [ -77.947188, 43.211926 ] } },
{ "type": "Feature", "properties": { "name": "SUNY Buffalo State University", "student_pop": 5097, "acceptance_rate": 0.7295, "avg_net_price": 11346.0, "graduation_rate": 0.3331, "earnings_10y_post_grad": 52334.0, "city": "Buffalo", "ownership": 1, "id": 196130, "location.lat": 42.933832, "location.lon": -78.882125, "ownership_label": "State/City University of New York" }, "geometry": { "type": "Point", "coordinates": [ -78.882125, 42.933832 ] } },
{ "type": "Feature", "properties": { "name": "SUNY Cortland", "student_pop": 5901, "acceptance_rate": 0.5979, "avg_net_price": 22345.0, "graduation_rate": 0.6803, "earnings_10y_post_grad": 60236.0, "city": "Cortland", "ownership": 1, "id": 196149, "location.lat": 42.598022, "location.lon": -76.188655, "ownership_label": "State/City University of New York" }, "geometry": { "type": "Point", "coordinates": [ -76.188655, 42.598022 ] } },
{ "type": "Feature", "properties": { "name": "SUNY Fredonia", "student_pop": 2755, "acceptance_rate": 0.777, "avg_net_price": 15897.0, "graduation_rate": 0.5021, "earnings_10y_post_grad": 54247.0, "city": "Fredonia", "ownership": 1, "id": 196158, "location.lat": 42.452236, "location.lon": -79.337375, "ownership_label": "State/City University of New York" }, "geometry": { "type": "Point", "coordinates": [ -79.337375, 42.452236 ] } },
{ "type": "Feature", "properties": { "name": "SUNY College at Geneseo", "student_pop": 3869, "acceptance_rate": 0.6645, "avg_net_price": 18211.0, "graduation_rate": 0.7145, "earnings_10y_post_grad": 67316.0, "city": "Geneseo", "ownership": 1, "id": 196167, "location.lat": 42.796645, "location.lon": -77.821894, "ownership_label": "State/City University of New York" }, "geometry": { "type": "Point", "coordinates": [ -77.821894, 42.796645 ] } },
{ "type": "Feature", "properties": { "name": "SUNY New Paltz", "student_pop": 6086, "acceptance_rate": 0.6161, "avg_net_price": 18809.0, "graduation_rate": 0.716, "earnings_10y_post_grad": 58073.0, "city": "New Paltz", "ownership": 1, "id": 196176, "location.lat": 41.740936, "location.lon": -74.082188, "ownership_label": "State/City University of New York" }, "geometry": { "type": "Point", "coordinates": [ -74.082188, 41.740936 ] } },
{ "type": "Feature", "properties": { "name": "SUNY Oneonta", "student_pop": 4643, "acceptance_rate": 0.696, "avg_net_price": 19158.0, "graduation_rate": 0.6881, "earnings_10y_post_grad": 60386.0, "city": "Oneonta", "ownership": 1, "id": 196185, "location.lat": 42.468861, "location.lon": -75.063632, "ownership_label": "State/City University of New York" }, "geometry": { "type": "Point", "coordinates": [ -75.063632, 42.468861 ] } },
{ "type": "Feature", "properties": { "name": "SUNY Oswego", "student_pop": 5473, "acceptance_rate": 0.8055, "avg_net_price": 16236.0, "graduation_rate": 0.6036, "earnings_10y_post_grad": 57566.0, "city": "Oswego", "ownership": 1, "id": 196194, "location.lat": 43.454287, "location.lon": -76.540798, "ownership_label": "State/City University of New York" }, "geometry": { "type": "Point", "coordinates": [ -76.540798, 43.454287 ] } },
{ "type": "Feature", "properties": { "name": "SUNY College at Potsdam", "student_pop": 1823, "acceptance_rate": 0.777, "avg_net_price": 13624.0, "graduation_rate": 0.453, "earnings_10y_post_grad": 47866.0, "city": "Potsdam", "ownership": 1, "id": 196200, "location.lat": 44.662148, "location.lon": -74.973815, "ownership_label": "State/City University of New York" }, "geometry": { "type": "Point", "coordinates": [ -74.973815, 44.662148 ] } },
{ "type": "Feature", "properties": { "name": "SUNY Purchase College", "student_pop": 3197, "acceptance_rate": 0.7405, "avg_net_price": 18913.0, "graduation_rate": 0.6277, "earnings_10y_post_grad": 45092.0, "city": "Purchase", "ownership": 1, "id": 196219, "location.lat": 41.047223, "location.lon": -73.701955, "ownership_label": "State/City University of New York" }, "geometry": { "type": "Point", "coordinates": [ -73.701955, 41.047223 ] } },
{ "type": "Feature", "properties": { "name": "SUNY Old Westbury", "student_pop": 4162, "acceptance_rate": 0.8363, "avg_net_price": 11282.0, "graduation_rate": 0.4457, "earnings_10y_post_grad": 58526.0, "city": "Old Westbury", "ownership": 1, "id": 196237, "location.lat": 40.799021, "location.lon": -73.571907, "ownership_label": "State/City University of New York" }, "geometry": { "type": "Point", "coordinates": [ -73.571907, 40.799021 ] } },
{ "type": "Feature", "properties": { "name": "SUNY Plattsburgh", "student_pop": 3769, "acceptance_rate": 0.7841, "avg_net_price": 17156.0, "graduation_rate": 0.5851, "earnings_10y_post_grad": 56403.0, "city": "Plattsburgh", "ownership": 1, "id": 196246, "location.lat": 44.69293, "location.lon": -73.466536, "ownership_label": "State/City University of New York" }, "geometry": { "type": "Point", "coordinates": [ -73.466536, 44.69293 ] } },
{ "type": "Feature", "properties": { "name": "Empire State University", "student_pop": 7585, "acceptance_rate": null, "avg_net_price": 11676.0, "graduation_rate": 0.4123, "earnings_10y_post_grad": 54080.0, "city": "Saratoga Springs", "ownership": 1, "id": 196264, "location.lat": 43.077283, "location.lon": -73.782484, "ownership_label": "State/City University of New York" }, "geometry": { "type": "Point", "coordinates": [ -73.782484, 43.077283 ] } },
{ "type": "Feature", "properties": { "name": "SUNY Maritime College", "student_pop": 1285, "acceptance_rate": 0.7241, "avg_net_price": 22367.0, "graduation_rate": 0.6439, "earnings_10y_post_grad": 95951.0, "city": "Throggs Neck", "ownership": 1, "id": 196291, "location.lat": 40.807217, "location.lon": -73.795309, "ownership_label": "State/City University of New York" }, "geometry": { "type": "Point", "coordinates": [ -73.795309, 40.807217 ] } },
{ "type": "Feature", "properties": { "name": "Syracuse University", "student_pop": 15477, "acceptance_rate": 0.4592, "avg_net_price": 38793.0, "graduation_rate": 0.8361, "earnings_10y_post_grad": 79164.0, "city": "Syracuse", "ownership": 2, "id": 196413, "location.lat": 43.036644, "location.lon": -76.133989, "ownership_label": "Private nonprofit" }, "geometry": { "type": "Point", "coordinates": [ -76.133989, 43.036644 ] } },
{ "type": "Feature", "properties": { "name": "Tompkins Cortland Community College", "student_pop": 1469, "acceptance_rate": null, "avg_net_price": 12723.0, "graduation_rate": null, "earnings_10y_post_grad": 40707.0, "city": "Dryden", "ownership": 1, "id": 196565, "location.lat": 42.502006, "location.lon": -76.287586, "ownership_label": "State/City University of New York" }, "geometry": { "type": "Point", "coordinates": [ -76.287586, 42.502006 ] } },
{ "type": "Feature", "properties": { "name": "Touro University", "student_pop": 4040, "acceptance_rate": 0.6083, "avg_net_price": 29627.0, "graduation_rate": 0.7239, "earnings_10y_post_grad": 53419.0, "city": "New York", "ownership": 2, "id": 196592, "location.lat": 40.756832, "location.lon": -73.987049, "ownership_label": "Private nonprofit" }, "geometry": { "type": "Point", "coordinates": [ -73.987049, 40.756832 ] } },
{ "type": "Feature", "properties": { "name": "Trocaire College", "student_pop": 984, "acceptance_rate": 0.9749, "avg_net_price": 16636.0, "graduation_rate": 0.3086, "earnings_10y_post_grad": 55318.0, "city": "Buffalo", "ownership": 2, "id": 196653, "location.lat": 42.846693, "location.lon": -78.812398, "ownership_label": "Private nonprofit" }, "geometry": { "type": "Point", "coordinates": [ -78.812398, 42.846693 ] } },
{ "type": "Feature", "properties": { "name": "Ulster County Community College", "student_pop": 1341, "acceptance_rate": null, "avg_net_price": 5035.0, "graduation_rate": null, "earnings_10y_post_grad": 41896.0, "city": "Stone Ridge", "ownership": 1, "id": 196699, "location.lat": 41.851218, "location.lon": -74.128698, "ownership_label": "State/City University of New York" }, "geometry": { "type": "Point", "coordinates": [ -74.128698, 41.851218 ] } },
{ "type": "Feature", "properties": { "name": "Union College", "student_pop": 2046, "acceptance_rate": 0.4392, "avg_net_price": 34561.0, "graduation_rate": 0.8039, "earnings_10y_post_grad": 88604.0, "city": "Schenectady", "ownership": 2, "id": 196866, "location.lat": 42.818097, "location.lon": -73.928788, "ownership_label": "Private nonprofit" }, "geometry": { "type": "Point", "coordinates": [ -73.928788, 42.818097 ] } },
{ "type": "Feature", "properties": { "name": "United States Merchant Marine Academy", "student_pop": 962, "acceptance_rate": 0.3424, "avg_net_price": 6174.0, "graduation_rate": 0.8238, "earnings_10y_post_grad": 90610.0, "city": "Kings Point", "ownership": 1, "id": 197027, "location.lat": 40.81357, "location.lon": -73.763004, "ownership_label": "State/City University of New York" }, "geometry": { "type": "Point", "coordinates": [ -73.763004, 40.81357 ] } },
{ "type": "Feature", "properties": { "name": "United States Military Academy", "student_pop": 4408, "acceptance_rate": 0.1245, "avg_net_price": null, "graduation_rate": 0.8706, "earnings_10y_post_grad": null, "city": "West  Point", "ownership": 1, "id": 197036, "location.lat": 41.388988, "location.lon": -73.956772, "ownership_label": "State/City University of New York" }, "geometry": { "type": "Point", "coordinates": [ -73.956772, 41.388988 ] } },
{ "type": "Feature", "properties": { "name": "Utica University", "student_pop": 2278, "acceptance_rate": 0.9195, "avg_net_price": 19108.0, "graduation_rate": 0.5624, "earnings_10y_post_grad": 63277.0, "city": "Utica", "ownership": 2, "id": 197045, "location.lat": 43.096213, "location.lon": -75.272916, "ownership_label": "Private nonprofit" }, "geometry": { "type": "Point", "coordinates": [ -75.272916, 43.096213 ] } },
{ "type": "Feature", "properties": { "name": "Vassar College", "student_pop": 2444, "acceptance_rate": 0.1857, "avg_net_price": 39343.0, "graduation_rate": 0.9108, "earnings_10y_post_grad": 71366.0, "city": "Poughkeepsie", "ownership": 2, "id": 197133, "location.lat": 41.686895, "location.lon": -73.895088, "ownership_label": "Private nonprofit" }, "geometry": { "type": "Point", "coordinates": [ -73.895088, 41.686895 ] } },
{ "type": "Feature", "properties": { "name": "School of Visual Arts", "student_pop": 3244, "acceptance_rate": 0.9264, "avg_net_price": 57914.0, "graduation_rate": 0.7568, "earnings_10y_post_grad": 46459.0, "city": "New York", "ownership": 3, "id": 197151, "location.lat": 40.738809, "location.lon": -73.982359, "ownership_label": "Private for-profit" }, "geometry": { "type": "Point", "coordinates": [ -73.982359, 40.738809 ] } },
{ "type": "Feature", "properties": { "name": "Wagner College", "student_pop": 1651, "acceptance_rate": 0.88, "avg_net_price": 28241.0, "graduation_rate": 0.6514, "earnings_10y_post_grad": 74360.0, "city": "Staten Island", "ownership": 2, "id": 197197, "location.lat": 40.615588, "location.lon": -74.092913, "ownership_label": "Private nonprofit" }, "geometry": { "type": "Point", "coordinates": [ -74.092913, 40.615588 ] } },
{ "type": "Feature", "properties": { "name": "Webb Institute", "student_pop": 106, "acceptance_rate": 0.1404, "avg_net_price": 73043.0, "graduation_rate": 0.88, "earnings_10y_post_grad": null, "city": "Glen Cove", "ownership": 2, "id": 197221, "location.lat": 40.884444, "location.lon": -73.644909, "ownership_label": "Private nonprofit" }, "geometry": { "type": "Point", "coordinates": [ -73.644909, 40.884444 ] } },
{ "type": "Feature", "properties": { "name": "The College of Westchester", "student_pop": 759, "acceptance_rate": 0.9442, "avg_net_price": 16296.0, "graduation_rate": 0.3765, "earnings_10y_post_grad": 42215.0, "city": "White Plains", "ownership": 3, "id": 197285, "location.lat": 41.033687, "location.lon": -73.784404, "ownership_label": "Private for-profit" }, "geometry": { "type": "Point", "coordinates": [ -73.784404, 41.033687 ] } },
{ "type": "Feature", "properties": { "name": "SUNY Westchester Community College", "student_pop": 8078, "acceptance_rate": null, "avg_net_price": 9373.0, "graduation_rate": null, "earnings_10y_post_grad": 46822.0, "city": "Valhalla", "ownership": 1, "id": 197294, "location.lat": 41.068458, "location.lon": -73.789669, "ownership_label": "State/City University of New York" }, "geometry": { "type": "Point", "coordinates": [ -73.789669, 41.068458 ] } },
{ "type": "Feature", "properties": { "name": "CUNY Stella and Charles Guttman Community College", "student_pop": 978, "acceptance_rate": null, "avg_net_price": 5833.0, "graduation_rate": null, "earnings_10y_post_grad": null, "city": "New York", "ownership": 1, "id": 475565, "location.lat": 40.75281, "location.lon": -73.984131, "ownership_label": "State/City University of New York" }, "geometry": { "type": "Point", "coordinates": [ -73.984131, 40.75281 ] } },
{ "type": "Feature", "properties": { "name": "DeVry College of New York", "student_pop": 86, "acceptance_rate": 1.0, "avg_net_price": 12855.0, "graduation_rate": 0.3077, "earnings_10y_post_grad": 45987.0, "city": "New York", "ownership": 3, "id": 482413, "location.lat": 40.747747, "location.lon": -73.983492, "ownership_label": "Private for-profit" }, "geometry": { "type": "Point", "coordinates": [ -73.983492, 40.747747 ] } }
]
}
